{"type": "FeatureCollection", "features": [ {"type": "Feature", "properties": {"norad_id": 66598, "name": "STARLINK-35981", "group": "last-30-days", "lat": 16.315794054003142, "lon": -161.41121475018042, "alt_km": 412.6602487521359, "timestamp": "2025-12-14T20:40:30.515435+00:00", "meta": {"OBJECT_NAME": "STARLINK-35981", "OBJECT_ID": "2025-270L", "EPOCH": "2025-12-14T06:39:27.876672", "MEAN_MOTION": 15.50601029, "ECCENTRICITY": 0.00017401, "INCLINATION": 42.9992, "RA_OF_ASC_NODE": 183.6976, "ARG_OF_PERICENTER": 260.576, "MEAN_ANOMALY": 99.4903, "EPHEMERIS_TYPE": 0, "CLASSIFICATION_TYPE": "U", "NORAD_CAT_ID": 66598, "ELEMENT_SET_NO": 999, "REV_AT_EPOCH": 442, "BSTAR": 0.0015430836, "MEAN_MOTION_DOT": 0.00091319, "MEAN_MOTION_DDOT": 0}, "tle": {"line1": "1 66598U 25270L   25348.27740598  .00091319  00000+0  15431-2 0  9992", "line2": "2 66598  42.9992 183.6976 0001740 260.5760  99.4903 15.50601029  4422"}}, "geometry": {"type": "Point", "coordinates": [-161.41121475018042, 16.315794054003142]}}, {"type": "Feature", "properties": {"norad_id": 66599, "name": "STARLINK-35930", "group": "last-30-days", "lat": 17.543310315157978, "lon": -159.89241584969602, "alt_km": 412.13490994266886, "timestamp": "2025-12-14T20:40:30.515445+00:00", "meta": {"OBJECT_NAME": "STARLINK-35930", "OBJECT_ID": "2025-270M", "EPOCH": "2025-12-14T06:38:58.381440", "MEAN_MOTION": 15.50601172, "ECCENTRICITY": 6.541e-05, "INCLINATION": 42.9992, "RA_OF_ASC_NODE": 183.6953, "ARG_OF_PERICENTER": 259.7194, "MEAN_ANOMALY": 100.3592, "EPHEMERIS_TYPE": 0, "CLASSIFICATION_TYPE": "U", "NORAD_CAT_ID": 66599, "ELEMENT_SET_NO": 999, "REV_AT_EPOCH": 458, "BSTAR": 0.0014620785, "MEAN_MOTION_DOT": 0.00086452, "MEAN_MOTION_DDOT": 0}, "tle": {"line1": "1 66599U 25270M   25348.27706460  .00086452  00000+0  14621-2 0  9995", "line2": "2 66599  42.9992 183.6953 0000654 259.7194 100.3592 15.50601172  4584"}}, "geometry": {"type": "Point", "coordinates": [-159.89241584969602, 17.543310315157978]}}, {"type": "Feature", "properties": {"norad_id": 66600, "name": "STARLINK-35980", "group": "last-30-days", "lat": 18.82976292575986, "lon": -158.26222171809556, "alt_km": 411.9874929093203, "timestamp": "2025-12-14T20:40:30.515457+00:00", "meta": {"OBJECT_NAME": "STARLINK-35980", "OBJECT_ID": "2025-270N", "EPOCH": "2025-12-14T00:00:04.000320", "MEAN_MOTION": 15.50494294, "ECCENTRICITY": 0.00027052, "INCLINATION": 43, "RA_OF_ASC_NODE": 185.3122, "ARG_OF_PERICENTER": 274.3886, "MEAN_ANOMALY": 339.4365, "EPHEMERIS_TYPE": 0, "CLASSIFICATION_TYPE": "U", "NORAD_CAT_ID": 66600, "ELEMENT_SET_NO": 999, "REV_AT_EPOCH": 450, "BSTAR": 0.0029848595, "MEAN_MOTION_DOT": 0.00178281, "MEAN_MOTION_DDOT": 0}, "tle": {"line1": "1 66600U 25270N   25348.00004630  .00178281  00000+0  29849-2 0  9999", "line2": "2 66600  43.0000 185.3122 0002705 274.3886 339.4365 15.50494294  4506"}}, "geometry": {"type": "Point", "coordinates": [-158.26222171809556, 18.82976292575986]}}, {"type": "Feature", "properties": {"norad_id": 66601, "name": "STARLINK-35978", "group": "last-30-days", "lat": 16.621848505319146, "lon": -161.03628635044876, "alt_km": 416.4634556702358, "timestamp": "2025-12-14T20:40:30.515467+00:00", "meta": {"OBJECT_NAME": "STARLINK-35978", "OBJECT_ID": "2025-270P", "EPOCH": "2025-12-14T06:38:34.715616", "MEAN_MOTION": 15.49227487, "ECCENTRICITY": 7.653e-05, "INCLINATION": 42.9992, "RA_OF_ASC_NODE": 183.6923, "ARG_OF_PERICENTER": 264.4873, "MEAN_ANOMALY": 95.5899, "EPHEMERIS_TYPE": 0, "CLASSIFICATION_TYPE": "U", "NORAD_CAT_ID": 66601, "ELEMENT_SET_NO": 999, "REV_AT_EPOCH": 442, "BSTAR": 0.00062994887, "MEAN_MOTION_DOT": 0.0003505, "MEAN_MOTION_DDOT": 0}, "tle": {"line1": "1 66601U 25270P   25348.27679069  .00035050  00000+0  62995-3 0  9999", "line2": "2 66601  42.9992 183.6923 0000765 264.4873  95.5899 15.49227487  4424"}}, "geometry": {"type": "Point", "coordinates": [-161.03628635044876, 16.621848505319146]}}, {"type": "Feature", "properties": {"norad_id": 66602, "name": "STARLINK-36050", "group": "last-30-days", "lat": -30.624168611313323, "lon": 141.01616768188495, "alt_km": 446.05961509067674, "timestamp": "2025-12-14T20:40:30.515481+00:00", "meta": {"OBJECT_NAME": "STARLINK-36050", "OBJECT_ID": "2025-270Q", "EPOCH": "2025-12-14T06:00:02.999808", "MEAN_MOTION": 15.40686607, "ECCENTRICITY": 0.0001765, "INCLINATION": 42.9999, "RA_OF_ASC_NODE": 183.9797, "ARG_OF_PERICENTER": 255.3722, "MEAN_ANOMALY": 261.0026, "EPHEMERIS_TYPE": 0, "CLASSIFICATION_TYPE": "U", "NORAD_CAT_ID": 66602, "ELEMENT_SET_NO": 999, "REV_AT_EPOCH": 454, "BSTAR": 0.00022678323, "MEAN_MOTION_DOT": 9.177e-05, "MEAN_MOTION_DDOT": 0}, "tle": {"line1": "1 66602U 25270Q   25348.25003472  .00009177  00000+0  22678-3 0  9992", "line2": "2 66602  42.9999 183.9797 0001765 255.3722 261.0026 15.40686607  4546"}}, "geometry": {"type": "Point", "coordinates": [141.01616768188495, -30.624168611313323]}}, {"type": "Feature", "properties": {"norad_id": 66603, "name": "STARLINK-36048", "group": "last-30-days", "lat": 22.37538772641354, "lon": -153.52592379324398, "alt_km": 412.02789451775607, "timestamp": "2025-12-14T20:40:30.515491+00:00", "meta": {"OBJECT_NAME": "STARLINK-36048", "OBJECT_ID": "2025-270R", "EPOCH": "2025-12-14T06:36:59.819904", "MEAN_MOTION": 15.50602076, "ECCENTRICITY": 0.00019173, "INCLINATION": 42.999, "RA_OF_ASC_NODE": 183.6835, "ARG_OF_PERICENTER": 250.1702, "MEAN_ANOMALY": 109.8952, "EPHEMERIS_TYPE": 0, "CLASSIFICATION_TYPE": "U", "NORAD_CAT_ID": 66603, "ELEMENT_SET_NO": 999, "REV_AT_EPOCH": 448, "BSTAR": 0.0018903592, "MEAN_MOTION_DOT": 0.00112254, "MEAN_MOTION_DDOT": 0}, "tle": {"line1": "1 66603U 25270R   25348.27569236  .00112254  00000+0  18904-2 0  9997", "line2": "2 66603  42.9990 183.6835 0001917 250.1702 109.8952 15.50602076  4487"}}, "geometry": {"type": "Point", "coordinates": [-153.52592379324398, 22.37538772641354]}}, {"type": "Feature", "properties": {"norad_id": 66604, "name": "STARLINK-35977", "group": "last-30-days", "lat": 23.562100891067498, "lon": -151.84282171115552, "alt_km": 411.25906451634455, "timestamp": "2025-12-14T20:40:30.515502+00:00", "meta": {"OBJECT_NAME": "STARLINK-35977", "OBJECT_ID": "2025-270S", "EPOCH": "2025-12-14T06:36:30.068928", "MEAN_MOTION": 15.50598213, "ECCENTRICITY": 0.00012519, "INCLINATION": 42.9988, "RA_OF_ASC_NODE": 183.6813, "ARG_OF_PERICENTER": 266.4209, "MEAN_ANOMALY": 93.6508, "EPHEMERIS_TYPE": 0, "CLASSIFICATION_TYPE": "U", "NORAD_CAT_ID": 66604, "ELEMENT_SET_NO": 999, "REV_AT_EPOCH": 458, "BSTAR": 0.0023427659, "MEAN_MOTION_DOT": 0.00139672, "MEAN_MOTION_DDOT": 0}, "tle": {"line1": "1 66604U 25270S   25348.27534802  .00139672  00000+0  23428-2 0  9999", "line2": "2 66604  42.9988 183.6813 0001251 266.4209  93.6508 15.50598213  4589"}}, "geometry": {"type": "Point", "coordinates": [-151.84282171115552, 23.562100891067498]}}, {"type": "Feature", "properties": {"norad_id": 66605, "name": "STARLINK-36052", "group": "last-30-days", "lat": 24.65108926822156, "lon": -150.24782055495945, "alt_km": 411.1823622620277, "timestamp": "2025-12-14T20:40:30.515512+00:00", "meta": {"OBJECT_NAME": "STARLINK-36052", "OBJECT_ID": "2025-270T", "EPOCH": "2025-12-14T06:36:00.841536", "MEAN_MOTION": 15.50589496, "ECCENTRICITY": 0.00011727, "INCLINATION": 42.9993, "RA_OF_ASC_NODE": 183.6793, "ARG_OF_PERICENTER": 272.4287, "MEAN_ANOMALY": 87.6439, "EPHEMERIS_TYPE": 0, "CLASSIFICATION_TYPE": "U", "NORAD_CAT_ID": 66605, "ELEMENT_SET_NO": 999, "REV_AT_EPOCH": 458, "BSTAR": 0.001606387, "MEAN_MOTION_DOT": 0.00095085, "MEAN_MOTION_DDOT": 0}, "tle": {"line1": "1 66605U 25270T   25348.27500974  .00095085  00000+0  16064-2 0  9990", "line2": "2 66605  42.9993 183.6793 0001172 272.4287  87.6439 15.50589496  4587"}}, "geometry": {"type": "Point", "coordinates": [-150.24782055495945, 24.65108926822156]}}, {"type": "Feature", "properties": {"norad_id": 66606, "name": "STARLINK-36063", "group": "last-30-days", "lat": 26.909801430631216, "lon": -146.76010801146734, "alt_km": 411.2254727196296, "timestamp": "2025-12-14T20:40:30.515521+00:00", "meta": {"OBJECT_NAME": "STARLINK-36063", "OBJECT_ID": "2025-270U", "EPOCH": "2025-12-14T06:35:01.284288", "MEAN_MOTION": 15.50597871, "ECCENTRICITY": 0.00017964, "INCLINATION": 42.999, "RA_OF_ASC_NODE": 183.6725, "ARG_OF_PERICENTER": 262.3668, "MEAN_ANOMALY": 97.6989, "EPHEMERIS_TYPE": 0, "CLASSIFICATION_TYPE": "U", "NORAD_CAT_ID": 66606, "ELEMENT_SET_NO": 999, "REV_AT_EPOCH": 458, "BSTAR": 0.00168214, "MEAN_MOTION_DOT": 0.00099675, "MEAN_MOTION_DDOT": 0}, "tle": {"line1": "1 66606U 25270U   25348.27432042  .00099675  00000+0  16821-2 0  9991", "line2": "2 66606  42.9990 183.6725 0001796 262.3668  97.6989 15.50597871  4580"}}, "geometry": {"type": "Point", "coordinates": [-146.76010801146734, 26.909801430631216]}}, {"type": "Feature", "properties": {"norad_id": 66607, "name": "STARLINK-35993", "group": "last-30-days", "lat": 25.80509343788686, "lon": -148.49833497772764, "alt_km": 411.2769506876757, "timestamp": "2025-12-14T20:40:30.515532+00:00", "meta": {"OBJECT_NAME": "STARLINK-35993", "OBJECT_ID": "2025-270V", "EPOCH": "2025-12-14T06:35:30.891840", "MEAN_MOTION": 15.50599245, "ECCENTRICITY": 0.00016058, "INCLINATION": 42.999, "RA_OF_ASC_NODE": 183.6761, "ARG_OF_PERICENTER": 262.8291, "MEAN_ANOMALY": 97.2386, "EPHEMERIS_TYPE": 0, "CLASSIFICATION_TYPE": "U", "NORAD_CAT_ID": 66607, "ELEMENT_SET_NO": 999, "REV_AT_EPOCH": 448, "BSTAR": 0.0016788235, "MEAN_MOTION_DOT": 0.0009948, "MEAN_MOTION_DDOT": 0}, "tle": {"line1": "1 66607U 25270V   25348.27466310  .00099480  00000+0  16788-2 0  9993", "line2": "2 66607  42.9990 183.6761 0001605 262.8291  97.2386 15.50599245  4480"}}, "geometry": {"type": "Point", "coordinates": [-148.49833497772764, 25.80509343788686]}}]}